IRIDIUM 159             
1 43578U 18061K   24205.63738688  .00000322  00000+0  10797-3 0  9998
2 43578  86.4001 346.5450 0001952  98.0120 262.1297 14.34216751313978
IRIDIUM 180             
1 43922U 19002A   24205.49734710 -.00000015  00000+0 -12320-4 0  9999
2 43922  86.3960 283.4812 0002109  98.9745 261.1689 14.34218978289566
IRIDIUM 176             
1 43923U 19002B   24205.68444267  .00002604  00000+0  40917-3 0  9992
2 43923  86.6106 283.4224 0002144  94.8353 265.3109 14.72233455297211
IRIDIUM 168             
1 43924U 19002C   24205.49099616  .00000086  00000+0  23556-4 0  9999
2 43924  86.3962 283.5421 0002108  95.9988 264.1448 14.34216427289543
IRIDIUM 173             
1 43925U 19002D   24205.68762673  .00000740  00000+0  25701-3 0  9991
2 43925  86.3961 283.3774 0002136  94.8328 265.3112 14.34218360289559
IRIDIUM 169             
1 43926U 19002E   24205.71165445  .00001870  00000+0  60486-3 0  9994
2 43926  86.4244 314.9970 0004118 103.2095 256.9563 14.38606291290525
IRIDIUM 172             
1 43927U 19002F   24205.47197755 -.00000123  00000+0 -50873-4 0  9999
2 43927  86.3958 283.4732 0002051  92.5858 267.5573 14.34214752289535
IRIDIUM 175             
1 43928U 19002G   24205.40697904  .00002293  00000+0  35957-3 0  9997
2 43928  86.1480 254.6318 0002611  97.0681 263.0832 14.72253359297165
